{"fetched_at":"2026-07-16T06:43:00.092Z","source":"https://celestrak.org/NORAD/elements/gp.php?NAME=HULIANWANG&FORMAT=JSON","constellation":"guowang","records":[{"OBJECT_NAME":"HULIANWANG JISHU SHIYAN A","OBJECT_ID":"2023-095A","EPOCH":"2026-07-15T22:33:15.575040","CLASSIFICATION_TYPE":"U","MEAN_MOTION":13.39544368,"ECCENTRICITY":0.0019488,"INCLINATION":86.5044,"RA_OF_ASC_NODE":354.8207,"ARG_OF_PERICENTER":109.3204,"MEAN_ANOMALY":251.0049,"EPHEMERIS_TYPE":0,"NORAD_CAT_ID":57288,"ELEMENT_SET_NO":999,"REV_AT_EPOCH":14760,"BSTAR":-0.000004173389,"MEAN_MOTION_DOT":1.3e-7,"MEAN_MOTION_DDOT":0},{"OBJECT_NAME":"HULIANWANG JISHU SHIYAN B","OBJECT_ID":"2023-095B","EPOCH":"2026-07-15T22:21:00.387936","CLASSIFICATION_TYPE":"U","MEAN_MOTION":13.39553011,"ECCENTRICITY":0.00180852,"INCLINATION":86.5046,"RA_OF_ASC_NODE":354.833,"ARG_OF_PERICENTER":107.4103,"MEAN_ANOMALY":252.9019,"EPHEMERIS_TYPE":0,"NORAD_CAT_ID":57289,"ELEMENT_SET_NO":999,"REV_AT_EPOCH":14760,"BSTAR":0.000009103665,"MEAN_MOTION_DOT":2e-7,"MEAN_MOTION_DDOT":0},{"OBJECT_NAME":"HULIANWANG JISHU SHIYAN 4A","OBJECT_ID":"2023-212A","EPOCH":"2026-07-15T21:48:48.634272","CLASSIFICATION_TYPE":"U","MEAN_MOTION":13.4145907,"ECCENTRICITY":0.0001236,"INCLINATION":49.9989,"RA_OF_ASC_NODE":238.5149,"ARG_OF_PERICENTER":222.3839,"MEAN_ANOMALY":137.6943,"EPHEMERIS_TYPE":0,"NORAD_CAT_ID":58691,"ELEMENT_SET_NO":999,"REV_AT_EPOCH":12510,"BSTAR":0.000058722035,"MEAN_MOTION_DOT":-9.5e-7,"MEAN_MOTION_DDOT":0},{"OBJECT_NAME":"HULIANWANG JISHU SHIYAN 4B","OBJECT_ID":"2023-212B","EPOCH":"2026-07-15T21:39:08.752896","CLASSIFICATION_TYPE":"U","MEAN_MOTION":13.41460196,"ECCENTRICITY":0.00013913,"INCLINATION":49.9958,"RA_OF_ASC_NODE":238.8969,"ARG_OF_PERICENTER":211.7906,"MEAN_ANOMALY":148.2887,"EPHEMERIS_TYPE":0,"NORAD_CAT_ID":58692,"ELEMENT_SET_NO":999,"REV_AT_EPOCH":12510,"BSTAR":0.000054169141,"MEAN_MOTION_DOT":-9.8e-7,"MEAN_MOTION_DDOT":0},{"OBJECT_NAME":"HULIANWANG JISHU SHIYAN 4C","OBJECT_ID":"2023-212C","EPOCH":"2026-07-15T21:43:49.088064","CLASSIFICATION_TYPE":"U","MEAN_MOTION":13.41462032,"ECCENTRICITY":0.00012365,"INCLINATION":49.9972,"RA_OF_ASC_NODE":239.012,"ARG_OF_PERICENTER":201.1048,"MEAN_ANOMALY":158.9779,"EPHEMERIS_TYPE":0,"NORAD_CAT_ID":58693,"ELEMENT_SET_NO":999,"REV_AT_EPOCH":12511,"BSTAR":0.000061597157,"MEAN_MOTION_DOT":-9.4e-7,"MEAN_MOTION_DDOT":0},{"OBJECT_NAME":"HULIANWANG DIGUI-01","OBJECT_ID":"2024-240A","EPOCH":"2026-07-15T22:23:56.567040","CLASSIFICATION_TYPE":"U","MEAN_MOTION":13.24411529,"ECCENTRICITY":0.00019715,"INCLINATION":86.502,"RA_OF_ASC_NODE":333.5399,"ARG_OF_PERICENTER":105.2742,"MEAN_ANOMALY":254.861,"EPHEMERIS_TYPE":0,"NORAD_CAT_ID":62323,"ELEMENT_SET_NO":999,"REV_AT_EPOCH":7644,"BSTAR":0.000030953023,"MEAN_MOTION_DOT":2.8e-7,"MEAN_MOTION_DDOT":0},{"OBJECT_NAME":"HULIANWANG DIGUI-02","OBJECT_ID":"2024-240B","EPOCH":"2026-07-15T22:34:41.166336","CLASSIFICATION_TYPE":"U","MEAN_MOTION":13.24411464,"ECCENTRICITY":0.00019403,"INCLINATION":86.5049,"RA_OF_ASC_NODE":333.7046,"ARG_OF_PERICENTER":105.6443,"MEAN_ANOMALY":254.4906,"EPHEMERIS_TYPE":0,"NORAD_CAT_ID":62324,"ELEMENT_SET_NO":999,"REV_AT_EPOCH":7645,"BSTAR":0.000035214397,"MEAN_MOTION_DOT":3e-7,"MEAN_MOTION_DDOT":0},{"OBJECT_NAME":"HULIANWANG DIGUI-03","OBJECT_ID":"2024-240C","EPOCH":"2026-07-15T22:13:02.170848","CLASSIFICATION_TYPE":"U","MEAN_MOTION":13.24410119,"ECCENTRICITY":0.00020061,"INCLINATION":86.5002,"RA_OF_ASC_NODE":333.4397,"ARG_OF_PERICENTER":103.7089,"MEAN_ANOMALY":256.4268,"EPHEMERIS_TYPE":0,"NORAD_CAT_ID":62325,"ELEMENT_SET_NO":999,"REV_AT_EPOCH":7644,"BSTAR":0.000012651739,"MEAN_MOTION_DOT":2e-7,"MEAN_MOTION_DDOT":0},{"OBJECT_NAME":"HULIANWANG DIGUI-04","OBJECT_ID":"2024-240D","EPOCH":"2026-07-15T22:02:10.930848","CLASSIFICATION_TYPE":"U","MEAN_MOTION":13.24410406,"ECCENTRICITY":0.00021327,"INCLINATION":86.5012,"RA_OF_ASC_NODE":333.4857,"ARG_OF_PERICENTER":103.6261,"MEAN_ANOMALY":256.511,"EPHEMERIS_TYPE":0,"NORAD_CAT_ID":62326,"ELEMENT_SET_NO":999,"REV_AT_EPOCH":7644,"BSTAR":-0.000018544029,"MEAN_MOTION_DOT":7e-8,"MEAN_MOTION_DDOT":0},{"OBJECT_NAME":"HULIANWANG DIGUI-05","OBJECT_ID":"2024-240E","EPOCH":"2026-07-15T21:51:18.349056","CLASSIFICATION_TYPE":"U","MEAN_MOTION":13.24411077,"ECCENTRICITY":0.00021811,"INCLINATION":86.5064,"RA_OF_ASC_NODE":333.7744,"ARG_OF_PERICENTER":101.4086,"MEAN_ANOMALY":258.7293,"EPHEMERIS_TYPE":0,"NORAD_CAT_ID":62327,"ELEMENT_SET_NO":999,"REV_AT_EPOCH":7644,"BSTAR":-0.000035101576,"MEAN_MOTION_DOT":0,"MEAN_MOTION_DDOT":0},{"OBJECT_NAME":"HULIANWANG DIGUI-06","OBJECT_ID":"2024-240F","EPOCH":"2026-07-15T21:29:33.006624","CLASSIFICATION_TYPE":"U","MEAN_MOTION":13.24408564,"ECCENTRICITY":0.00021144,"INCLINATION":86.5002,"RA_OF_ASC_NODE":333.4187,"ARG_OF_PERICENTER":107.8771,"MEAN_ANOMALY":252.2594,"EPHEMERIS_TYPE":0,"NORAD_CAT_ID":62328,"ELEMENT_SET_NO":999,"REV_AT_EPOCH":7644,"BSTAR":-0.000042881939,"MEAN_MOTION_DOT":-4e-8,"MEAN_MOTION_DDOT":0},{"OBJECT_NAME":"HULIANWANG DIGUI-07","OBJECT_ID":"2024-240G","EPOCH":"2026-07-15T23:07:26.317056","CLASSIFICATION_TYPE":"U","MEAN_MOTION":13.24411008,"ECCENTRICITY":0.00020226,"INCLINATION":86.4972,"RA_OF_ASC_NODE":333.2262,"ARG_OF_PERICENTER":105.5369,"MEAN_ANOMALY":254.5989,"EPHEMERIS_TYPE":0,"NORAD_CAT_ID":62329,"ELEMENT_SET_NO":999,"REV_AT_EPOCH":7645,"BSTAR":-0.000019725732,"MEAN_MOTION_DOT":6e-8,"MEAN_MOTION_DDOT":0},{"OBJECT_NAME":"HULIANWANG DIGUI-08","OBJECT_ID":"2024-240H","EPOCH":"2026-07-15T21:40:25.413024","CLASSIFICATION_TYPE":"U","MEAN_MOTION":13.24411359,"ECCENTRICITY":0.00022499,"INCLINATION":86.5056,"RA_OF_ASC_NODE":333.7235,"ARG_OF_PERICENTER":101.3712,"MEAN_ANOMALY":258.7675,"EPHEMERIS_TYPE":0,"NORAD_CAT_ID":62330,"ELEMENT_SET_NO":999,"REV_AT_EPOCH":7644,"BSTAR":-0.000034726631,"MEAN_MOTION_DOT":0,"MEAN_MOTION_DDOT":0},{"OBJECT_NAME":"HULIANWANG DIGUI-09","OBJECT_ID":"2024-240J","EPOCH":"2026-07-15T21:07:46.507296","CLASSIFICATION_TYPE":"U","MEAN_MOTION":13.24409992,"ECCENTRICITY":0.00019863,"INCLINATION":86.5021,"RA_OF_ASC_NODE":333.5828,"ARG_OF_PERICENTER":103.8285,"MEAN_ANOMALY":256.307,"EPHEMERIS_TYPE":0,"NORAD_CAT_ID":62331,"ELEMENT_SET_NO":999,"REV_AT_EPOCH":7643,"BSTAR":0.000032131593,"MEAN_MOTION_DOT":2.8e-7,"MEAN_MOTION_DDOT":0},{"OBJECT_NAME":"HULIANWANG DIGUI-10","OBJECT_ID":"2024-240K","EPOCH":"2026-07-15T22:45:41.495616","CLASSIFICATION_TYPE":"U","MEAN_MOTION":13.2441078,"ECCENTRICITY":0.00020712,"INCLINATION":86.5052,"RA_OF_ASC_NODE":333.7211,"ARG_OF_PERICENTER":106.408,"MEAN_ANOMALY":253.7282,"EPHEMERIS_TYPE":0,"NORAD_CAT_ID":62332,"ELEMENT_SET_NO":999,"REV_AT_EPOCH":7644,"BSTAR":0.000052576204,"MEAN_MOTION_DOT":3.7e-7,"MEAN_MOTION_DDOT":0},{"OBJECT_NAME":"HULIANWANG DIGUI-11","OBJECT_ID":"2025-030A","EPOCH":"2026-07-15T21:05:27.503520","CLASSIFICATION_TYPE":"U","MEAN_MOTION":13.29324453,"ECCENTRICITY":0.00009927,"INCLINATION":49.9999,"RA_OF_ASC_NODE":132.9116,"ARG_OF_PERICENTER":275.6245,"MEAN_ANOMALY":84.4514,"EPHEMERIS_TYPE":0,"NORAD_CAT_ID":62971,"ELEMENT_SET_NO":999,"REV_AT_EPOCH":6967,"BSTAR":0.000031590219,"MEAN_MOTION_DOT":-0.00000109,"MEAN_MOTION_DDOT":0}]}
