HULIANWANG JISHU SHIYAN*
1 57288U 23095A   26196.93976360  .00000013  00000+0 -41734-5 0  9994
2 57288  86.5044 354.8207 0019488 109.3204 251.0049 13.39544368147602
HULIANWANG JISHU SHIYAN*
1 57289U 23095B   26196.93125449  .00000020  00000+0  91037-5 0  9997
2 57289  86.5046 354.8330 0018085 107.4103 252.9019 13.39553011147603
HULIANWANG JISHU SHIYAN*
1 58691U 23212A   26196.90889623 -.00000095  00000+0  58722-4 0  9990
2 58691  49.9989 238.5149 0001236 222.3839 137.6943 13.41459070125108
HULIANWANG JISHU SHIYAN*
1 58692U 23212B   26196.90218464 -.00000098  00000+0  54169-4 0  9994
2 58692  49.9958 238.8969 0001391 211.7906 148.2887 13.41460196125103
HULIANWANG JISHU SHIYAN*
1 58693U 23212C   26196.90542926 -.00000094  00000+0  61597-4 0  9997
2 58693  49.9972 239.0120 0001236 201.1048 158.9779 13.41462032125110
HULIANWANG DIGUI-01     
1 62323U 24240A   26196.93329360  .00000028  00000+0  30953-4 0  9990
2 62323  86.5020 333.5399 0001971 105.2742 254.8610 13.24411529 76442
HULIANWANG DIGUI-02     
1 62324U 24240B   26196.94075424  .00000030  00000+0  35214-4 0  9999
2 62324  86.5049 333.7046 0001940 105.6443 254.4906 13.24411464 76456
HULIANWANG DIGUI-03     
1 62325U 24240C   26196.92571957  .00000020  00000+0  12652-4 0  9990
2 62325  86.5002 333.4397 0002006 103.7089 256.4268 13.24410119 76449
HULIANWANG DIGUI-04     
1 62326U 24240D   26196.91818207  .00000007  00000+0 -18544-4 0  9994
2 62326  86.5012 333.4857 0002132 103.6261 256.5110 13.24410406 76449
HULIANWANG DIGUI-05     
1 62327U 24240E   26196.91062904  .00000000  00000+0 -35102-4 0  9992
2 62327  86.5064 333.7744 0002181 101.4086 258.7293 13.24411077 76441
HULIANWANG DIGUI-06     
1 62328U 24240F   26196.89552091 -.00000004  00000+0 -42882-4 0  9999
2 62328  86.5002 333.4187 0002114 107.8771 252.2594 13.24408564 76449
HULIANWANG DIGUI-07     
1 62329U 24240G   26196.96349904  .00000006  00000+0 -19726-4 0  9997
2 62329  86.4972 333.2262 0002022 105.5369 254.5989 13.24411008 76454
HULIANWANG DIGUI-08     
1 62330U 24240H   26196.90307191  .00000000  00000+0 -34727-4 0  9997
2 62330  86.5056 333.7235 0002249 101.3712 258.7675 13.24411359 76448
HULIANWANG DIGUI-09     
1 62331U 24240J   26196.88039939  .00000028  00000+0  32132-4 0  9994
2 62331  86.5021 333.5828 0001986 103.8285 256.3070 13.24409992 76438
HULIANWANG DIGUI-10     
1 62332U 24240K   26196.94839694  .00000037  00000+0  52576-4 0  9992
2 62332  86.5052 333.7211 0002071 106.4080 253.7282 13.24410780 76443
HULIANWANG DIGUI-11     
1 62971U 25030A   26196.87879055 -.00000109  00000+0  31590-4 0  9990
2 62971  49.9999 132.9116 0000992 275.6245  84.4514 13.29324453 69670
